[{"OBJECT_NAME":"STARLINK-3302","OBJECT_ID":"2022-001AR","EPOCH":"2026-03-09T14:38:07.368000","MEAN_MOTION":15.08837644,"ECCENTRICITY":0.0001456,"INCLINATION":53.2182,"RA_OF_ASC_NODE":179.482,"ARG_OF_PERICENTER":96.2762,"MEAN_ANOMALY":263.8396,"EPHEMERIS_TYPE":0,"CLASSIFICATION_TYPE":"U","NORAD_CAT_ID":50842,"ELEMENT_SET_NO":999,"REV_AT_EPOCH":23024,"BSTAR":1.4976e-5,"MEAN_MOTION_DOT":-5.0e-7,"MEAN_MOTION_DDOT":0},{"OBJECT_NAME":"YUNYAO-1 47","OBJECT_ID":"2025-059E","EPOCH":"2026-03-09T22:46:15.708288","MEAN_MOTION":15.10508558,"ECCENTRICITY":0.00172664,"INCLINATION":97.6066,"RA_OF_ASC_NODE":250.9227,"ARG_OF_PERICENTER":135.6694,"MEAN_ANOMALY":224.5922,"EPHEMERIS_TYPE":0,"CLASSIFICATION_TYPE":"U","NORAD_CAT_ID":63348,"ELEMENT_SET_NO":999,"REV_AT_EPOCH":5331,"BSTAR":0.00029014568,"MEAN_MOTION_DOT":4.732e-5,"MEAN_MOTION_DDOT":0}]
